{
  "type": "FeatureCollection",
  "features": [
    {
      "type": "Feature",
      "properties": {
        "norad_id": 41581,
        "name": "INTELSAT 31 (IS-31)",
        "group": "intelsat",
        "lat": 0.0287764636369121,
        "lon": 33.87486901694023,
        "alt_km": 35794.96589987233,
        "timestamp": "2025-12-06T03:35:01.466686+00:00",
        "meta_object_name": "INTELSAT 31 (IS-31)",
        "meta_object_id": "2016-035A",
        "meta_epoch": "2025-12-04T23:32:53.890656",
        "meta_mean_motion": 1.00268487,
        "meta_eccentricity": 0.00018908,
        "meta_inclination": 0.0185,
        "meta_ra_of_asc_node": 272.2793,
        "meta_arg_of_pericenter": 308.6943,
        "meta_mean_anomaly": 111.243,
        "meta_ephemeris_type": 0,
        "meta_classification_type": "U",
        "meta_norad_cat_id": 41581,
        "meta_element_set_no": 999,
        "meta_rev_at_epoch": 3473,
        "meta_bstar": 0,
        "meta_mean_motion_dot": -1.37e-06,
        "meta_mean_motion_ddot": 0,
        "tle_line1": "1 41581U 16035A   25338.98117929 -.00000137  00000+0  00000+0 0  9991",
        "tle_line2": "2 41581   0.0185 272.2793 0001890 308.6943 111.2430  1.00268487 34733"
      },
      "geometry": {
        "type": "Point",
        "coordinates": [
          33.87486901694023,
          0.0287764636369121
        ]
      }
    },
    {
      "type": "Feature",
      "properties": {
        "norad_id": 41747,
        "name": "INTELSAT 36 (IS-36)",
        "group": "intelsat",
        "lat": -0.01743103858157788,
        "lon": -162.52200863662443,
        "alt_km": 35786.05055070862,
        "timestamp": "2025-12-06T03:35:01.466698+00:00",
        "meta_object_name": "INTELSAT 36 (IS-36)",
        "meta_object_id": "2016-053A",
        "meta_epoch": "2025-12-05T02:02:18.337344",
        "meta_mean_motion": 1.00286022,
        "meta_eccentricity": 0.00024479,
        "meta_inclination": 0.0121,
        "meta_ra_of_asc_node": 359.9688,
        "meta_arg_of_pericenter": 310.5924,
        "meta_mean_anomaly": 222.6723,
        "meta_ephemeris_type": 0,
        "meta_classification_type": "U",
        "meta_norad_cat_id": 41747,
        "meta_element_set_no": 999,
        "meta_rev_at_epoch": 3400,
        "meta_bstar": 0,
        "meta_mean_motion_dot": -1.5e-07,
        "meta_mean_motion_ddot": 0,
        "tle_line1": "1 41747U 16053A   25339.08493446 -.00000015  00000+0  00000+0 0  9993",
        "tle_line2": "2 41747   0.0121 359.9688 0002447 310.5924 222.6723  1.00286022 34000"
      },
      "geometry": {
        "type": "Point",
        "coordinates": [
          -162.52200863662443,
          -0.01743103858157788
        ]
      }
    },
    {
      "type": "Feature",
      "properties": {
        "norad_id": 41945,
        "name": "INTELSAT 32E (IS-32E)",
        "group": "intelsat",
        "lat": 0.025952305239578786,
        "lon": 85.74849451732086,
        "alt_km": 35787.53228108436,
        "timestamp": "2025-12-06T03:35:01.466710+00:00",
        "meta_object_name": "INTELSAT 32E (IS-32E)",
        "meta_object_id": "2017-007B",
        "meta_epoch": "2025-12-04T23:47:37.480128",
        "meta_mean_motion": 1.00268908,
        "meta_eccentricity": 3.495e-05,
        "meta_inclination": 0.0354,
        "meta_ra_of_asc_node": 76.4553,
        "meta_arg_of_pericenter": 258.238,
        "meta_mean_anomaly": 53.0863,
        "meta_ephemeris_type": 0,
        "meta_classification_type": "U",
        "meta_norad_cat_id": 41945,
        "meta_element_set_no": 999,
        "meta_rev_at_epoch": 3227,
        "meta_bstar": 0,
        "meta_mean_motion_dot": -2.56e-06,
        "meta_mean_motion_ddot": 0,
        "tle_line1": "1 41945U 17007B   25338.99140602 -.00000256  00000+0  00000+0 0  9992",
        "tle_line2": "2 41945   0.0354  76.4553 0000349 258.2380  53.0863  1.00268908 32274"
      },
      "geometry": {
        "type": "Point",
        "coordinates": [
          85.74849451732086,
          0.025952305239578786
        ]
      }
    },
    {
      "type": "Feature",
      "properties": {
        "norad_id": 42818,
        "name": "INTELSAT 35E (IS-35E)",
        "group": "intelsat",
        "lat": 0.03730094461510003,
        "lon": 94.44491274126767,
        "alt_km": 35796.48387087569,
        "timestamp": "2025-12-06T03:35:01.466722+00:00",
        "meta_object_name": "INTELSAT 35E (IS-35E)",
        "meta_object_id": "2017-041A",
        "meta_epoch": "2025-12-04T23:50:07.239840",
        "meta_mean_motion": 1.00270444,
        "meta_eccentricity": 0.00024364,
        "meta_inclination": 0.0171,
        "meta_ra_of_asc_node": 338.3796,
        "meta_arg_of_pericenter": 280.2111,
        "meta_mean_anomaly": 138.516,
        "meta_ephemeris_type": 0,
        "meta_classification_type": "U",
        "meta_norad_cat_id": 42818,
        "meta_element_set_no": 999,
        "meta_rev_at_epoch": 3086,
        "meta_bstar": 0,
        "meta_mean_motion_dot": -2.25e-06,
        "meta_mean_motion_ddot": 0,
        "tle_line1": "1 42818U 17041A   25338.99313935 -.00000225  00000+0  00000+0 0  9997",
        "tle_line2": "2 42818   0.0171 338.3796 0002436 280.2111 138.5160  1.00270444 30866"
      },
      "geometry": {
        "type": "Point",
        "coordinates": [
          94.44491274126767,
          0.03730094461510003
        ]
      }
    },
    {
      "type": "Feature",
      "properties": {
        "norad_id": 42950,
        "name": "INTELSAT 37E (IS-37E)",
        "group": "intelsat",
        "lat": 0.020774082310031167,
        "lon": 110.91456195931791,
        "alt_km": 35797.9285936145,
        "timestamp": "2025-12-06T03:35:01.466735+00:00",
        "meta_object_name": "INTELSAT 37E (IS-37E)",
        "meta_object_id": "2017-059A",
        "meta_epoch": "2025-12-05T03:20:18.361824",
        "meta_mean_motion": 1.00270825,
        "meta_eccentricity": 0.00035102,
        "meta_inclination": 0.0019,
        "meta_ra_of_asc_node": 0.7049,
        "meta_arg_of_pericenter": 251.0809,
        "meta_mean_anomaly": 214.4959,
        "meta_ephemeris_type": 0,
        "meta_classification_type": "U",
        "meta_norad_cat_id": 42950,
        "meta_element_set_no": 999,
        "meta_rev_at_epoch": 3012,
        "meta_bstar": 0,
        "meta_mean_motion_dot": -1.28e-06,
        "meta_mean_motion_ddot": 0,
        "tle_line1": "1 42950U 17059A   25339.13910141 -.00000128  00000+0  00000+0 0  9994",
        "tle_line2": "2 42950   0.0019   0.7049 0003510 251.0809 214.4959  1.00270825 30121"
      },
      "geometry": {
        "type": "Point",
        "coordinates": [
          110.91456195931791,
          0.020774082310031167
        ]
      }
    },
    {
      "type": "Feature",
      "properties": {
        "norad_id": 43632,
        "name": "AZERSPACE 2 (IS-38)",
        "group": "intelsat",
        "lat": -0.016660156940670433,
        "lon": 174.03029984791542,
        "alt_km": 35787.31395098042,
        "timestamp": "2025-12-06T03:35:01.466747+00:00",
        "meta_object_name": "AZERSPACE 2 (IS-38)",
        "meta_object_id": "2018-074A",
        "meta_epoch": "2025-12-05T00:42:09.646848",
        "meta_mean_motion": 1.00270458,
        "meta_eccentricity": 0.00016586,
        "meta_inclination": 0.0165,
        "meta_ra_of_asc_node": 329.2688,
        "meta_arg_of_pericenter": 303.0839,
        "meta_mean_anomaly": 217.3943,
        "meta_ephemeris_type": 0,
        "meta_classification_type": "U",
        "meta_norad_cat_id": 43632,
        "meta_element_set_no": 999,
        "meta_rev_at_epoch": 2650,
        "meta_bstar": 0,
        "meta_mean_motion_dot": 1.49e-06,
        "meta_mean_motion_ddot": 0,
        "tle_line1": "1 43632U 18074A   25339.02927832  .00000149  00000+0  00000+0 0  9995",
        "tle_line2": "2 43632   0.0165 329.2688 0001658 303.0839 217.3943  1.00270458 26505"
      },
      "geometry": {
        "type": "Point",
        "coordinates": [
          174.03029984791542,
          -0.016660156940670433
        ]
      }
    },
    {
      "type": "Feature",
      "properties": {
        "norad_id": 43633,
        "name": "HORIZONS-3E",
        "group": "intelsat",
        "lat": 0.003463347017564152,
        "lon": -62.03972554206779,
        "alt_km": 35782.12471843441,
        "timestamp": "2025-12-06T03:35:01.466759+00:00",
        "meta_object_name": "HORIZONS-3E",
        "meta_object_id": "2018-074B",
        "meta_epoch": "2025-12-05T02:31:00.587424",
        "meta_mean_motion": 1.00269387,
        "meta_eccentricity": 0.00011562,
        "meta_inclination": 0.0395,
        "meta_ra_of_asc_node": 193.0784,
        "meta_arg_of_pericenter": 85.1125,
        "meta_mean_anomaly": 2.7538,
        "meta_ephemeris_type": 0,
        "meta_classification_type": "U",
        "meta_norad_cat_id": 43633,
        "meta_element_set_no": 999,
        "meta_rev_at_epoch": 2639,
        "meta_bstar": 0,
        "meta_mean_motion_dot": -1.8e-07,
        "meta_mean_motion_ddot": 0,
        "tle_line1": "1 43633U 18074B   25339.10486791 -.00000018  00000+0  00000+0 0  9995",
        "tle_line2": "2 43633   0.0395 193.0784 0001156  85.1125   2.7538  1.00269387 26396"
      },
      "geometry": {
        "type": "Point",
        "coordinates": [
          -62.03972554206779,
          0.003463347017564152
        ]
      }
    }
  ]
}